CTC1_L_00353001-01
1 10000U 26681LH  26075.70033565  .00000000  00000+0  00000-0 0  9992
2 10000  60.0000   0.0000 0000000   0.0000   0.0000 13.72670257    10
CTC1_L_00353001-02
1 10001U 26105CV  26075.70033565  .00000000  00000+0  00000-0 0  9994
2 10001  60.0000   0.0000 0000000   0.0000  90.0000 13.72670257    10
CTC1_L_00353001-03
1 10002U 23457IQ  26075.70033565  .00000000  00000+0  00000-0 0  9992
2 10002  60.0000   0.0000 0000000   0.0000 180.0000 13.72670257    11
CTC1_L_00353001-04
1 10003U 26811IX  26075.70033565  .00000000  00000+0  00000-0 0  9990
2 10003  60.0000   0.0000 0000000   0.0000 270.0000 13.72670257    12
CTC1_L_00353002-01
1 10004U 26728RL  26075.70033565  .00000000  00000+0  00000-0 0  9998
2 10004  60.0000  12.0000 0000000   0.0000  12.0000 13.72670257    10
CTC1_L_00353002-02
1 10005U 22533RP  26075.70033565  .00000000  00000+0  00000-0 0  9999
2 10005  60.0000  12.0000 0000000   0.0000 102.0000 13.72670257    11
CTC1_L_00353002-03
1 10006U 26851OI  26075.70033565  .00000000  00000+0  00000-0 0  9997
2 10006  60.0000  12.0000 0000000   0.0000 192.0000 13.72670257    11
CTC1_L_00353002-04
1 10007U 23043TP  26075.70033565  .00000000  00000+0  00000-0 0  9998
2 10007  60.0000  12.0000 0000000   0.0000 282.0000 13.72670257    12
CTC1_L_00353003-01
1 10008U 22222RD  26075.70033565  .00000000  00000+0  00000-0 0  9997
2 10008  60.0000  24.0000 0000000   0.0000  24.0000 13.72670257    10
CTC1_L_00353003-02
1 10009U 26136P   26075.70033565  .00000000  00000+0  00000-0 0  9996
2 10009  60.0000  24.0000 0000000   0.0000 114.0000 13.72670257    11
CTC1_L_00353003-03
1 10010U 23992XB  26075.70033565  .00000000  00000+0  00000-0 0  9995
2 10010  60.0000  24.0000 0000000   0.0000 204.0000 13.72670257    13
CTC1_L_00353003-04
1 10011U 26422SV  26075.70033565  .00000000  00000+0  00000-0 0  9997
2 10011  60.0000  24.0000 0000000   0.0000 294.0000 13.72670257    13
CTC1_L_00353004-01
1 10012U 24486FE  26075.70033565  .00000000  00000+0  00000-0 0  9996
2 10012  60.0000  36.0000 0000000   0.0000  36.0000 13.72670257    11
CTC1_L_00353004-02
1 10013U 23685JG  26075.70033565  .00000000  00000+0  00000-0 0  9997
2 10013  60.0000  36.0000 0000000   0.0000 126.0000 13.72670257    12
CTC1_L_00353004-03
1 10014U 26079KJ  26075.70033565  .00000000  00000+0  00000-0 0  9998
2 10014  60.0000  36.0000 0000000   0.0000 216.0000 13.72670257    13
CTC1_L_00353004-04
1 10015U 26799OL  26075.70033565  .00000000  00000+0  00000-0 0  9998
2 10015  60.0000  36.0000 0000000   0.0000 306.0000 13.72670257    14
CTC1_L_00353005-01
1 10016U 23106VN  26075.70033565  .00000000  00000+0  00000-0 0  9998
2 10016  60.0000  48.0000 0000000   0.0000  48.0000 13.72670257    11
CTC1_L_00353005-02
1 10017U 25469DA  26075.70033565  .00000000  00000+0  00000-0 0  9993
2 10017  60.0000  48.0000 0000000   0.0000 138.0000 13.72670257    12
CTC1_L_00353005-03
1 10018U 22090PR  26075.70033565  .00000000  00000+0  00000-0 0  9991
2 10018  60.0000  48.0000 0000000   0.0000 228.0000 13.72670257    13
CTC1_L_00353005-04
1 10019U 22022BW  26075.70033565  .00000000  00000+0  00000-0 0  9997
2 10019  60.0000  48.0000 0000000   0.0000 318.0000 13.72670257    14
CTC1_L_00353006-01
1 10020U 23890FM  26075.70033565  .00000000  00000+0  00000-0 0  9993
2 10020  60.0000  60.0000 0000000   0.0000  60.0000 13.72670257    14
CTC1_L_00353006-02
1 10021U 26964YT  26075.70033565  .00000000  00000+0  00000-0 0  9999
2 10021  60.0000  60.0000 0000000   0.0000 150.0000 13.72670257    15
CTC1_L_00353006-03
1 10022U 23145FC  26075.70033565  .00000000  00000+0  00000-0 0  9998
2 10022  60.0000  60.0000 0000000   0.0000 240.0000 13.72670257    16
CTC1_L_00353006-04
1 10023U 24186AF  26075.70033565  .00000000  00000+0  00000-0 0  9995
2 10023  60.0000  60.0000 0000000   0.0000 330.0000 13.72670257    17
CTC1_L_00353007-01
1 10024U 23420SY  26075.70033565  .00000000  00000+0  00000-0 0  9996
2 10024  60.0000  72.0000 0000000   0.0000  72.0000 13.72670257    14
CTC1_L_00353007-02
1 10025U 24535AN  26075.70033565  .00000000  00000+0  00000-0 0  9995
2 10025  60.0000  72.0000 0000000   0.0000 162.0000 13.72670257    15
CTC1_L_00353007-03
1 10026U 24998TP  26075.70033565  .00000000  00000+0  00000-0 0  9999
2 10026  60.0000  72.0000 0000000   0.0000 252.0000 13.72670257    16
CTC1_L_00353007-04
1 10027U 26056VU  26075.70033565  .00000000  00000+0  00000-0 0  9997
2 10027  60.0000  72.0000 0000000   0.0000 342.0000 13.72670257    17
CTC1_L_00353008-01
1 10028U 24112YK  26075.70033565  .00000000  00000+0  00000-0 0  9999
2 10028  60.0000  84.0000 0000000   0.0000  84.0000 13.72670257    14
CTC1_L_00353008-02
1 10029U 26036LM  26075.70033565  .00000000  00000+0  00000-0 0  9997
2 10029  60.0000  84.0000 0000000   0.0000 174.0000 13.72670257    15
CTC1_L_00353008-03
1 10030U 26401YU  26075.70033565  .00000000  00000+0  00000-0 0  9995
2 10030  60.0000  84.0000 0000000   0.0000 264.0000 13.72670257    17
CTC1_L_00353008-04
1 10031U 22300YW  26075.70033565  .00000000  00000+0  00000-0 0  9990
2 10031  60.0000  84.0000 0000000   0.0000 354.0000 13.72670257    18
CTC1_L_00353009-01
1 10032U 23216HU  26075.70033565  .00000000  00000+0  00000-0 0  9998
2 10032  60.0000  96.0000 0000000   0.0000  96.0000 13.72670257    15
CTC1_L_00353009-02
1 10033U 23945LH  26075.70033565  .00000000  00000+0  00000-0 0  9998
2 10033  60.0000  96.0000 0000000   0.0000 186.0000 13.72670257    16
CTC1_L_00353009-03
1 10034U 22896UR  26075.70033565  .00000000  00000+0  00000-0 0  9993
2 10034  60.0000  96.0000 0000000   0.0000 276.0000 13.72670257    17
CTC1_L_00353009-04
1 10035U 22129WE  26075.70033565  .00000000  00000+0  00000-0 0  9993
2 10035  60.0000  96.0000 0000000   0.0000   6.0000 13.72670257    19
CTC1_L_00353010-01
1 10036U 24368BQ  26075.70033565  .00000000  00000+0  00000-0 0  9991
2 10036  60.0000 108.0000 0000000   0.0000 108.0000 13.72670257    17
CTC1_L_00353010-02
1 10037U 25628XV  26075.70033565  .00000000  00000+0  00000-0 0  9992
2 10037  60.0000 108.0000 0000000   0.0000 198.0000 13.72670257    17
CTC1_L_00353010-03
1 10038U 25999CU  26075.70033565  .00000000  00000+0  00000-0 0  9994
2 10038  60.0000 108.0000 0000000   0.0000 288.0000 13.72670257    18
CTC1_L_00353010-04
1 10039U 24845WC  26075.70033565  .00000000  00000+0  00000-0 0  9994
2 10039  60.0000 108.0000 0000000   0.0000  18.0000 13.72670257    10
CTC1_L_00353011-01
1 10040U 22029GP  26075.70033565  .00000000  00000+0  00000-0 0  9998
2 10040  60.0000 120.0000 0000000   0.0000 120.0000 13.72670257    10
CTC1_L_00353011-02
1 10041U 24415YU  26075.70033565  .00000000  00000+0  00000-0 0  9990
2 10041  60.0000 120.0000 0000000   0.0000 210.0000 13.72670257    11
CTC1_L_00353011-03
1 10042U 22926AB  26075.70033565  .00000000  00000+0  00000-0 0  9996
2 10042  60.0000 120.0000 0000000   0.0000 300.0000 13.72670257    12
CTC1_L_00353011-04
1 10043U 26530IL  26075.70033565  .00000000  00000+0  00000-0 0  9992
2 10043  60.0000 120.0000 0000000   0.0000  30.0000 13.72670257    13
CTC1_L_00353012-01
1 10044U 25777ZV  26075.70033565  .00000000  00000+0  00000-0 0  9995
2 10044  60.0000 132.0000 0000000   0.0000 132.0000 13.72670257    10
CTC1_L_00353012-02
1 10045U 24722MB  26075.70033565  .00000000  00000+0  00000-0 0  9995
2 10045  60.0000 132.0000 0000000   0.0000 222.0000 13.72670257    11
CTC1_L_00353012-03
1 10046U 23878SO  26075.70033565  .00000000  00000+0  00000-0 0  9997
2 10046  60.0000 132.0000 0000000   0.0000 312.0000 13.72670257    12
CTC1_L_00353012-04
1 10047U 23783OX  26075.70033565  .00000000  00000+0  00000-0 0  9993
2 10047  60.0000 132.0000 0000000   0.0000  42.0000 13.72670257    13
CTC1_L_00353013-01
1 10048U 24045MO  26075.70033565  .00000000  00000+0  00000-0 0  9996
2 10048  60.0000 144.0000 0000000   0.0000 144.0000 13.72670257    10
CTC1_L_00353013-02
1 10049U 23365LR  26075.70033565  .00000000  00000+0  00000-0 0  9991
2 10049  60.0000 144.0000 0000000   0.0000 234.0000 13.72670257    11
CTC1_L_00353013-03
1 10050U 23653WI  26075.70033565  .00000000  00000+0  00000-0 0  9993
2 10050  60.0000 144.0000 0000000   0.0000 324.0000 13.72670257    13
CTC1_L_00353013-04
1 10051U 22851KN  26075.70033565  .00000000  00000+0  00000-0 0  9993
2 10051  60.0000 144.0000 0000000   0.0000  54.0000 13.72670257    14
CTC1_L_00353014-01
1 10052U 25409KL  26075.70033565  .00000000  00000+0  00000-0 0  9996
2 10052  60.0000 156.0000 0000000   0.0000 156.0000 13.72670257    11
CTC1_L_00353014-02
1 10053U 22698DA  26075.70033565  .00000000  00000+0  00000-0 0  9994
2 10053  60.0000 156.0000 0000000   0.0000 246.0000 13.72670257    12
CTC1_L_00353014-03
1 10054U 22654JG  26075.70033565  .00000000  00000+0  00000-0 0  9997
2 10054  60.0000 156.0000 0000000   0.0000 336.0000 13.72670257    13
CTC1_L_00353014-04
1 10055U 25547OY  26075.70033565  .00000000  00000+0  00000-0 0  9992
2 10055  60.0000 156.0000 0000000   0.0000  66.0000 13.72670257    14
CTC1_L_00353015-01
1 10056U 26149CA  26075.70033565  .00000000  00000+0  00000-0 0  9992
2 10056  60.0000 168.0000 0000000   0.0000 168.0000 13.72670257    11
CTC1_L_00353015-02
1 10057U 25962JK  26075.70033565  .00000000  00000+0  00000-0 0  9995
2 10057  60.0000 168.0000 0000000   0.0000 258.0000 13.72670257    12
CTC1_L_00353015-03
1 10058U 26616TC  26075.70033565  .00000000  00000+0  00000-0 0  9993
2 10058  60.0000 168.0000 0000000   0.0000 348.0000 13.72670257    13
CTC1_L_00353015-04
1 10059U 23085XD  26075.70033565  .00000000  00000+0  00000-0 0  9991
2 10059  60.0000 168.0000 0000000   0.0000  78.0000 13.72670257    14
CTC1_L_00353016-01
1 10060U 25253PI  26075.70033565  .00000000  00000+0  00000-0 0  9992
2 10060  60.0000 180.0000 0000000   0.0000 180.0000 13.72670257    14
CTC1_L_00353016-02
1 10061U 23666WY  26075.70033565  .00000000  00000+0  00000-0 0  9999
2 10061  60.0000 180.0000 0000000   0.0000 270.0000 13.72670257    15
